[{"OBJECT_NAME":"OBJECT AL","OBJECT_ID":"2023-085AL","EPOCH":"2026-03-09T22:26:04.970400","MEAN_MOTION":15.31857284,"ECCENTRICITY":0.000802,"INCLINATION":97.4839,"RA_OF_ASC_NODE":180.0127,"ARG_OF_PERICENTER":78.7242,"MEAN_ANOMALY":281.49,"EPHEMERIS_TYPE":0,"CLASSIFICATION_TYPE":"U","NORAD_CAT_ID":57038,"ELEMENT_SET_NO":999,"REV_AT_EPOCH":15154,"BSTAR":0.0006591637,"MEAN_MOTION_DOT":0.00020246,"MEAN_MOTION_DDOT":0},{"OBJECT_NAME":"STARLINK-36112","OBJECT_ID":"2025-286V","EPOCH":"2026-03-09T22:49:02.977824","MEAN_MOTION":15.30219241,"ECCENTRICITY":0.00013596,"INCLINATION":53.1609,"RA_OF_ASC_NODE":357.4539,"ARG_OF_PERICENTER":40.369,"MEAN_ANOMALY":319.7412,"EPHEMERIS_TYPE":0,"CLASSIFICATION_TYPE":"U","NORAD_CAT_ID":66944,"ELEMENT_SET_NO":999,"REV_AT_EPOCH":1545,"BSTAR":0.0011443275,"MEAN_MOTION_DOT":0.00033707,"MEAN_MOTION_DDOT":0}]
